[{"OBJECT_NAME":"GEESAT-3 05","OBJECT_ID":"2024-159E","EPOCH":"2026-03-09T23:05:48.139872","MEAN_MOTION":14.83791273,"ECCENTRICITY":0.00130192,"INCLINATION":50.0014,"RA_OF_ASC_NODE":183.3883,"ARG_OF_PERICENTER":33.8365,"MEAN_ANOMALY":326.3402,"EPHEMERIS_TYPE":0,"CLASSIFICATION_TYPE":"U","NORAD_CAT_ID":61015,"ELEMENT_SET_NO":999,"REV_AT_EPOCH":8204,"BSTAR":0.00049101067,"MEAN_MOTION_DOT":3.889e-5,"MEAN_MOTION_DDOT":0},{"OBJECT_NAME":"SL-14 R\/B","OBJECT_ID":"1985-069B","EPOCH":"2026-03-09T22:43:57.776736","MEAN_MOTION":14.8643353,"ECCENTRICITY":0.00184951,"INCLINATION":82.5286,"RA_OF_ASC_NODE":24.6907,"ARG_OF_PERICENTER":186.8367,"MEAN_ANOMALY":173.26,"EPHEMERIS_TYPE":0,"CLASSIFICATION_TYPE":"U","NORAD_CAT_ID":15945,"ELEMENT_SET_NO":999,"REV_AT_EPOCH":17287,"BSTAR":7.8245878e-5,"MEAN_MOTION_DOT":7.17e-6,"MEAN_MOTION_DDOT":0}]
